[{"OBJECT_NAME":"SWAS","OBJECT_ID":"1998-071A","EPOCH":"2026-03-09T12:50:12.826752","MEAN_MOTION":15.08888192,"ECCENTRICITY":0.00040991,"INCLINATION":69.8952,"RA_OF_ASC_NODE":124.3662,"ARG_OF_PERICENTER":14.3215,"MEAN_ANOMALY":345.8065,"EPHEMERIS_TYPE":0,"CLASSIFICATION_TYPE":"U","NORAD_CAT_ID":25560,"ELEMENT_SET_NO":999,"REV_AT_EPOCH":48223,"BSTAR":0.00029986322,"MEAN_MOTION_DOT":4.636e-5,"MEAN_MOTION_DDOT":0},{"OBJECT_NAME":"STARLINK-4797","OBJECT_ID":"2022-114AL","EPOCH":"2026-03-09T21:27:28.378944","MEAN_MOTION":15.08838488,"ECCENTRICITY":0.00013892,"INCLINATION":53.2167,"RA_OF_ASC_NODE":288.1362,"ARG_OF_PERICENTER":98.6724,"MEAN_ANOMALY":261.4426,"EPHEMERIS_TYPE":0,"CLASSIFICATION_TYPE":"U","NORAD_CAT_ID":53852,"ELEMENT_SET_NO":999,"REV_AT_EPOCH":19307,"BSTAR":-1.2817237e-5,"MEAN_MOTION_DOT":-4.92e-6,"MEAN_MOTION_DDOT":0}]
